STARLINK-5793           
1 56038U 23042BE  23094.58334491 -.00677311  00000+0 -50560-2 0  9992
2 56038  43.0032 128.1206 0001365 278.1929 196.5911 15.73712240  1307
STARLINK-5795           
1 56039U 23042BF  23094.58334491 -.00681727  00000+0 -50805-2 0  9991
2 56039  43.0028 128.1164 0001541 280.2911 196.0033 15.73761377  1302
STARLINK-5798           
1 56040U 23042BG  23094.58334491 -.00677825  00000+0 -50460-2 0  9994
2 56040  43.0032 128.1157 0001324 278.7506 198.0394 15.73776963  1301
STARLINK-5800           
1 56041U 23042BH  23094.58334491 -.00677703  00000+0 -50422-2 0  9998
2 56041  43.0028 128.1142 0001351 278.0193 199.2876 15.73789631  1300
FALCON 9 DEB            
1 56042U 23042BJ  23094.14735332  .00328970  47761-4  10363-2 0  9997
2 56042  43.0114 130.2687 0029470  57.8801 302.4928 15.89800302  1678
FALCON 9 DEB            
1 56043U 23042BK  23094.14465709  .00358774  55804-4  11002-2 0  9999
2 56043  43.0087 130.2454 0026884  60.9202 299.4360 15.90436872  1670
FALCON 9 DEB            
1 56044U 23042BL  23094.13720906  .00385440  64286-4  11045-2 0  9993
2 56044  43.0050 130.1786 0025523  51.1656 309.1493 15.91787494  1678
FALCON 9 DEB            
1 56045U 23042BM  23094.13621911  .00344346  52655-4  99584-3 0  9992
2 56045  43.0036 130.1665 0023895  53.6969 306.6108 15.91698700  1679
ONEWEB-0537             
1 56046U 23043A   23094.58334491  .00069045  00000+0  17503-2 0  9999
2 56046  87.4230 139.2776 0012249 233.0375 314.0063 15.39367886  1300
ONEWEB-0538             
1 56047U 23043B   23094.58334491  .00068992  00000+0  17440-2 0  9990
2 56047  87.4244 139.2776 0011966 231.8559 317.5639 15.39458424  1307
ONEWEB-0546             
1 56048U 23043C   23094.58334491  .00070642  00000+0  17747-2 0  9996
2 56048  87.4215 139.2757 0011445 228.8718 326.8277 15.39647497  1301
ONEWEB-0547             
1 56049U 23043D   23094.58334491  .00072694  00000+0  17737-2 0  9995
2 56049  87.4221 139.2709 0007951 220.6389   5.7283 15.40564789  1301
ONEWEB-0548             
1 56050U 23043E   23094.58334491  .00067391  00000+0  17232-2 0  9995
2 56050  87.4246 139.2806 0012228 238.9335 299.1979 15.39109049  1307
ONEWEB-0549             
1 56051U 23043F   23094.58334491  .00072141  00000+0  17735-2 0  9993
2 56051  87.4226 139.2749 0009118 220.5395 357.8932 15.40327900  1300
ONEWEB-0550             
1 56052U 23043G   23094.58334491  .00071455  00000+0  17742-2 0  9999
2 56052  87.4222 139.2731 0010440 221.4796 346.3053 15.40013990  1301
ONEWEB-0551             
1 56053U 23043H   23094.58334491  .00065132  00000+0  17135-2 0  9991
2 56053  87.4253 139.2873 0010086 254.3668 255.4179 15.38267231  1307
ONEWEB-0552             
1 56054U 23043J   23094.58334491  .00070715  00000+0  17667-2 0  9995
2 56054  87.4235 139.2756 0011052 225.9729 335.3903 15.39821305  1306
ONEWEB-0553             
1 56055U 23043K   23094.58334491 -.00000199  00000+0 -62316-5 0  9991
2 56055  87.4251 139.2774 0011527 230.3054 323.1113 15.39572732  1308
ONEWEB-0554             
1 56056U 23043L   23094.58334491  .00069585  00000+0  17433-2 0  9991
2 56056  87.4247 139.2763 0011241 227.3396 331.4028 15.39738682  1305
ONEWEB-0555             
1 56057U 23043M   23094.58334491  .00066940  00000+0  17134-2 0  9992
2 56057  87.4230 139.2784 0012274 237.8033 298.9206 15.39079172  1309
ONEWEB-0557             
1 56058U 23043N   23094.58334491  .00069630  00000+0  17429-2 0  9999
2 56058  87.4222 139.2754 0011130 226.6976 333.0439 15.39766735  1307
ONEWEB-0558             
1 56059U 23043P   23094.58334491  .00073121  00000+0  17793-2 0  9994
2 56059  87.4234 139.2729 0007623 221.7557   7.3145 15.40647998  1302
ONEWEB-0559             
1 56060U 23043Q   23094.58334491  .00071489  00000+0  17546-2 0  9997
2 56060  87.4224 139.2726 0008952 220.3247 359.7414 15.40381159  1304
ONEWEB-0566             
1 56061U 23043R   23094.58334491  .00071249  00000+0  17675-2 0  9995
2 56061  87.4226 139.2769 0010293 221.4281 347.4345 15.40043512  1300
ONEWEB-0568             
1 56062U 23043S   23094.58334491  .00065431  00000+0  17139-2 0  9997
2 56062  87.4231 139.2800 0010997 252.2718 261.4569 15.38390209  1309
ONEWEB-0574             
1 56063U 23043T   23094.58334491  .00073500  00000+0  17831-2 0  9993
2 56063  87.4198 139.2657 0007491 224.4674   7.5844 15.40739689  1306
ONEWEB-0575             
1 56064U 23043U   23094.58334491  .00065771  00000+0  17154-2 0  9993
2 56064  87.4245 139.2838 0011353 250.3807 267.6588 15.38517597  1302
ONEWEB-0576             
1 56065U 23043V   23094.58334491  .00066515  00000+0  17137-2 0  9992
2 56065  87.4268 139.2849 0012145 243.5273 286.6416 15.38881499  1307
ONEWEB-0577             
1 56066U 23043W   23094.58334491  .00066661  00000+0  17246-2 0  9996
2 56066  87.4257 139.2840 0012132 246.2146 279.6728 15.38753882  1304
ONEWEB-0578             
1 56067U 23043X   23094.58334491  .00072519  00000+0  17843-2 0  9999
2 56067  87.4222 139.2712 0009273 220.7122 356.6213 15.40299313  1300
ONEWEB-0579             
1 56068U 23043Y   23094.58334491  .00074216  00000+0  17893-2 0  9991
2 56068  87.4231 139.2708 0006946 228.3566  10.0477 15.40929741  1304
ONEWEB-0581             
1 56069U 23043Z   23094.58334491  .00065888  00000+0  17065-2 0  9998
2 56069  87.4241 139.2817 0012147 246.9820 277.8787 15.38722155  1300
ONEWEB-0609             
1 56070U 23043AA  23094.58334491  .00072210  00000+0  17511-2 0  9993
2 56070  87.4239 139.2730 0007329 225.7895   7.3538 15.40757583  1302
ONEWEB-0613             
1 56071U 23043AB  23094.58334491  .00065694  00000+0  16980-2 0  9991
2 56071  87.4226 139.2789 0012151 245.3262 281.8813 15.38785601  1302
ONEWEB-0630             
1 56072U 23043AC  23094.58334491  .00066478  00000+0  17094-2 0  9990
2 56072  87.4221 139.2774 0012126 242.5100 289.8234 15.38941983  1306
ONEWEB-0632             
1 56073U 23043AD  23094.58334491  .00072244  00000+0  17398-2 0  9996
2 56073  87.4216 139.2676 0006923 230.4333   9.3993 15.40971142  1304
ONEWEB-0633             
1 56074U 23043AE  23094.58334491  .00073504  00000+0  17755-2 0  9994
2 56074  87.4203 139.2657 0007009 227.5214   9.2204 15.40874405  1309
ONEWEB-0634             
1 56075U 23043AF  23094.58334491  .00103372  00000+0  25078-2 0  9999
2 56075  87.4207 139.2677 0007732 220.9349   7.7747 15.40626639  1304
ONEWEB-0635             
1 56076U 23043AG  23094.58334491  .00066666  00000+0  17096-2 0  9995
2 56076  87.4265 139.2834 0012168 240.5368 294.5988 15.39023778  1308
ONEWEB-0636             
1 56077U 23043AH  23094.58334491  .00070117  00000+0  17317-2 0  9998
2 56077  87.4227 139.2765 0009674 221.0524 352.8800 15.40189394  1306
ONEWEB-0637             
1 56078U 23043AJ  23094.58334491  .00063988  00000+0  16922-2 0  9998
2 56078  87.4239 139.2834 0010276 256.6244 248.0129 15.38108816  1307
ONEWEB-0647             
1 56079U 23043AK  23094.58334491  .00074273  00000+0  18462-2 0  9999
2 56079  87.4225 139.2753 0010573 221.6384 344.7724 15.39968507  1307
ONEWEB-0651             
1 56080U 23043AL  23094.58334491  .00069014  00000+0  17425-2 0  9996
2 56080  87.4220 139.2765 0011712 232.8276 317.9485 15.39497223  1305
ONEWEB-0718             
1 56081U 23043AM  23094.58334491  .00070583  00000+0  17462-2 0  9991
2 56081  87.4222 139.2713 0009895 221.1828 350.7662 15.40133230  1303
GSLV R/B                
1 56082U 23043AN  23094.16881545  .00024799  00000+0  66160-3 0  9991
2 56082  87.4180 139.4314 0024177 358.7615   1.3574 15.37705606  1395
COSMOS 2568             
1 56091U 23045A   23094.53134469  .00049436  00000+0  28835-3 0  9992
2 56091  96.4625 184.7964 0010861 272.2130  87.7895 15.78204772   891
SL-4 R/B                
1 56092U 23045B   23094.21055920  .00112120  00000+0  60712-3 0  9993
2 56092  96.4656 184.5206 0013356 263.1599  96.8140 15.79631309   854
STARLINK A              
1 56093U 23046A   23094.58334491 -.00933015  00000+0 -67393-2 0  9995
2 56093  43.0001 229.3974 0001531 281.5483 190.9157 15.75169084  1302
STARLINK B              
1 56094U 23046B   23094.58334491 -.00899494  00000+0 -64501-2 0  9996
2 56094  42.9998 229.3931 0001694 296.1322 178.0586 15.75238869  1304
STARLINK C              
1 56095U 23046C   23094.58334491 -.00924951  00000+0 -66697-2 0  9992
2 56095  43.0000 229.3966 0001495 272.6264 200.2775 15.75185458  1305
STARLINK D              
1 56096U 23046D   23094.58334491 -.00904558  00000+0 -64822-2 0  9992
2 56096  42.9999 229.3924 0001816 300.8394 173.7712 15.75266391  1301
STARLINK E              
1 56097U 23046E   23094.58334491  .00216550  24506-4  81160-3 0  9996
2 56097  43.0015 229.1493 0026657   9.9665 201.0878 15.86587737  1300
STARLINK F              
1 56098U 23046F   23094.58334491 -.00918249  00000+0 -66031-2 0  9990
2 56098  42.9998 229.3941 0001690 293.1305 180.6351 15.75227413  1305
STARLINK G              
1 56099U 23046G   23094.58334491 -.00902352  00000+0 -64515-2 0  9994
2 56099  42.9999 229.3906 0001693 297.7736 177.6729 15.75313679  1304
STARLINK H              
1 56100U 23046H   23094.58334491 -.00892533  00000+0 -63693-2 0  9992
2 56100  42.9997 229.3889 0001560 289.1491 186.7247 15.75330368  1301
STARLINK J              
1 56101U 23046J   23094.58334491 -.00938726  00000+0 -67201-2 0  9997
2 56101  43.0000 229.3881 0001494 283.0265 193.2474 15.75387951  1304
STARLINK K              
1 56102U 23046K   23094.58334491 -.00923322  00000+0 -66181-2 0  9990
2 56102  43.0001 229.3914 0002768 261.4111 213.6114 15.75303023  1304
STARLINK L              
1 56103U 23046L   23094.58334491 -.00897442  00000+0 -63865-2 0  9990
2 56103  42.9996 229.3859 0001679 296.0629 181.0632 15.75405829  1302
STARLINK M              
1 56104U 23046M   23094.58334491 -.00897554  00000+0 -63942-2 0  9991
2 56104  42.9998 229.3872 0001614 295.5065 181.1981 15.75382359  1307
